NORAD_CAT_ID,OBJECT_NAME,OBJECT_TYPE,EPOCH,MEAN_MOTION,ECCENTRICITY,INCLINATION,RA_OF_ASC_NODE,ARG_OF_PERICENTER,MEAN_ANOMALY,BSTAR,MEAN_MOTION_DOT,MEAN_MOTION_DDOT,TLE_LINE0,TLE_LINE1,TLE_LINE2,SEMIMAJOR_AXIS,PERIOD,APOGEE,PERIGEE,DECAYED
51116.0,STARLINK-3243,PAYLOAD,2023-09-22 00:28:47,15.08861382,0.0001098,53.2173,7.8677,73.8493,286.262,0.00083468,0.00013029,0.0,0 STARLINK-3243,1 51116U 22005N   23265.01999161  .00013029  00000-0  83468-3 0  9994,2 51116  53.2173   7.8677 0001098  73.8493 286.2620 15.08861382 94162,6917.815,95.436,540.44,538.92,0.0
51116.0,STARLINK-3243,PAYLOAD,2023-09-22 13:11:52,15.08863335,0.0001382,53.2176,5.4902,73.9639,286.1505,0.0013126,0.00020677,0.0,0 STARLINK-3243,1 51116U 22005N   23265.54990845  .00020677  00000-0  13126-2 0  9992,2 51116  53.2176   5.4902 0001382  73.9639 286.1505 15.08863335 93136,6917.809,95.436,540.63,538.718,0.0
51116.0,STARLINK-3243,PAYLOAD,2023-09-22 17:58:01,15.08877272,0.0001304,53.2174,4.5976,77.0131,283.1007,0.0017127,0.00027103,0.0,0 STARLINK-3243,1 51116U 22005N   23265.74862345  .00027103  00000-0  17127-2 0  9993,2 51116  53.2174   4.5976 0001304  77.0131 283.1007 15.08877272 93163,6917.766,95.435,540.534,538.729,0.0
51116.0,STARLINK-3243,PAYLOAD,2023-09-23 00:19:33,15.08858017,0.0001297,53.2172,3.4083,76.9375,283.1762,0.00096702,0.00015143,0.0,0 STARLINK-3243,1 51116U 22005N   23266.01358600  .00015143  00000-0  96702-3 0  9996,2 51116  53.2172   3.4083 0001297  76.9375 283.1762 15.08858017 94319,6917.825,95.436,540.588,538.793,0.0
51116.0,STARLINK-3243,PAYLOAD,2023-09-23 13:02:38,15.08855729,0.0001275,53.2177,1.0286,91.2715,268.8423,0.0005238,8.062e-05,0.0,0 STARLINK-3243,1 51116U 22005N   23266.54350315  .00008062  00000-0  52380-3 0  9995,2 51116  53.2177   1.0286 0001275  91.2715 268.8423 15.08855729 94396,6917.832,95.437,540.579,538.815,0.0
51116.0,STARLINK-3243,PAYLOAD,2023-09-24 09:42:39,15.08851346,0.0001835,53.2177,357.1583,116.5762,243.5418,0.00059184,9.147e-05,0.0,0 STARLINK-3243,1 51116U 22005N   23267.40462321  .00009147  00000-0  59184-3 0  9996,2 51116  53.2177 357.1583 0001835 116.5762 243.5418 15.08851346 94526,6917.846,95.437,540.98,538.441,0.0
51116.0,STARLINK-3243,PAYLOAD,2023-09-24 11:18:02,15.0885802,0.0001352,53.218,356.8646,113.2869,246.8266,0.0010267,0.00016098,0.0,0 STARLINK-3243,1 51116U 22005N   23267.47086322  .00016098  00000-0  10267-2 0  9997,2 51116  53.2180 356.8646 0001352 113.2869 246.8266 15.08858020 93423,6917.825,95.436,540.626,538.755,0.0
51116.0,STARLINK-3243,PAYLOAD,2023-09-24 17:39:34,15.08864198,0.0001282,53.2177,355.6761,96.2749,263.8389,0.0010363,0.00016254,0.0,0 STARLINK-3243,1 51116U 22005N   23267.73582056  .00016254  00000-0  10363-2 0  9992,2 51116  53.2177 355.6761 0001282  96.2749 263.8389 15.08864198 93465,6917.806,95.436,540.558,538.785,0.0
51116.0,STARLINK-3243,PAYLOAD,2023-09-25 09:33:26,15.0885911,0.0001274,53.2184,352.7024,102.9922,257.1213,0.0016709,0.00026418,0.0,0 STARLINK-3243,1 51116U 22005N   23268.39822466  .00026418  00000-0  16709-2 0  9990,2 51116  53.2184 352.7024 0001274 102.9922 257.1213 15.08859110 94676,6917.822,95.436,540.568,538.806,0.0
51116.0,STARLINK-3243,PAYLOAD,2023-09-25 12:44:13,15.08839639,0.0001148,53.2183,352.1076,94.8098,265.3025,0.0012502,0.00019665,0.0,0 STARLINK-3243,1 51116U 22005N   23268.53070785  .00019665  00000-0  12502-2 0  9998,2 51116  53.2183 352.1076 0001148  94.8098 265.3025 15.08839639 93584,6917.881,95.438,540.541,538.952,0.0
51116.0,STARLINK-3243,PAYLOAD,2023-09-25 17:30:22,15.08848613,0.00012,53.2189,351.2159,95.5067,264.6062,0.0012886,0.00020284,0.0,0 STARLINK-3243,1 51116U 22005N   23268.72942703  .00020284  00000-0  12886-2 0  9991,2 51116  53.2189 351.2159 0001200  95.5067 264.6062 15.08848613 94727,6917.854,95.437,540.549,538.889,0.0
51116.0,STARLINK-3243,PAYLOAD,2023-09-26 09:24:14,15.08831517,0.0001449,53.2176,348.243,101.3693,258.7462,0.00083509,0.00013024,0.0,0 STARLINK-3243,1 51116U 22005N   23269.39183488  .00013024  00000-0  83509-3 0  9997,2 51116  53.2176 348.2430 0001449 101.3693 258.7462 15.08831517 94821,6917.906,95.438,540.774,538.769,0.0
51116.0,STARLINK-3243,PAYLOAD,2023-09-26 10:59:37,15.08839032,0.0001414,53.2178,347.9457,100.7339,259.3812,0.0012089,0.00019003,0.0,0 STARLINK-3243,1 51116U 22005N   23269.45807483  .00019003  00000-0  12089-2 0  9999,2 51116  53.2178 347.9457 0001414 100.7339 259.3812 15.08839032 93724,6917.883,95.438,540.727,538.77,0.0
51116.0,STARLINK-3243,PAYLOAD,2023-09-27 09:15:01,15.08845997,0.0001542,53.217,343.7821,112.3286,247.787,0.00049861,7.658e-05,0.0,0 STARLINK-3243,1 51116U 22005N   23270.38543433  .00007658  00000-0  49861-3 0  9997,2 51116  53.2170 343.7821 0001542 112.3286 247.7870 15.08845997 94977,6917.862,95.437,540.794,538.66,0.0
51116.0,STARLINK-3243,PAYLOAD,2023-09-27 12:25:47,15.08851554,0.0001432,53.217,343.1881,103.4014,256.7137,0.00061927,9.585e-05,0.0,0 STARLINK-3243,1 51116U 22005N   23270.51791327  .00009585  00000-0  61927-3 0  9997,2 51116  53.2170 343.1881 0001432 103.4014 256.7137 15.08851554 93886,6917.845,95.437,540.701,538.719,0.0
51116.0,STARLINK-3243,PAYLOAD,2023-09-28 12:16:35,15.08842709,0.0001448,53.2161,338.7281,98.1369,261.9787,0.00022376,3.275e-05,0.0,0 STARLINK-3243,1 51116U 22005N   23271.51151661  .00003275  00000-0  22376-3 0  9994,2 51116  53.2161 338.7281 0001448  98.1369 261.9787 15.08842709 95142,6917.872,95.437,540.739,538.735,0.0
51116.0,STARLINK-3243,PAYLOAD,2023-09-28 13:51:58,15.08843181,0.0001436,53.2161,338.4308,99.4903,260.6252,0.00021815,3.186e-05,0.0,0 STARLINK-3243,1 51116U 22005N   23271.57775624  .00003186  00000-0  21815-3 0  9999,2 51116  53.2161 338.4308 0001436  99.4903 260.6252 15.08843181 94040,6917.871,95.437,540.729,538.742,0.0
51116.0,STARLINK-3243,PAYLOAD,2023-09-29 10:31:59,15.08840496,0.0001692,53.2158,334.5663,80.306,279.8123,0.00021296,3.103e-05,0.0,0 STARLINK-3243,1 51116U 22005N   23272.43888169  .00003103  00000-0  21296-3 0  9996,2 51116  53.2158 334.5663 0001692  80.3060 279.8123 15.08840496 95286,6917.879,95.438,540.914,538.573,0.0
51116.0,STARLINK-3243,PAYLOAD,2023-09-29 13:42:45,15.08851144,0.0001585,53.2166,333.9697,98.1747,261.9425,0.00049643,7.624e-05,0.0,0 STARLINK-3243,1 51116U 22005N   23272.57135745  .00007624  00000-0  49643-3 0  9994,2 51116  53.2166 333.9697 0001585  98.1747 261.9425 15.08851144 95307,6917.846,95.437,540.808,538.615,0.0
51116.0,STARLINK-3243,PAYLOAD,2023-09-30 10:22:45,15.08860513,0.0001657,53.2166,330.1041,96.5998,263.5183,0.00056115,8.659e-05,0.0,0 STARLINK-3243,1 51116U 22005N   23273.43247202  .00008659  00000-0  56115-3 0  9993,2 51116  53.2166 330.1041 0001657  96.5998 263.5183 15.08860513 95432,6917.818,95.436,540.829,538.536,0.0
51116.0,STARLINK-3243,PAYLOAD,2023-10-01 10:13:32,15.08851233,0.0001622,53.216,325.6413,100.6336,259.4839,0.00017744,2.538e-05,0.0,0 STARLINK-3243,1 51116U 22005N   23274.42606808  .00002538  00000-0  17744-3 0  9999,2 51116  53.2160 325.6413 0001622 100.6336 259.4839 15.08851233 95580,6917.846,95.437,540.833,538.589,0.0
51116.0,STARLINK-3243,PAYLOAD,2023-10-01 13:24:18,15.0885065,0.0001596,53.2161,325.0456,102.1188,257.9983,0.00012545,1.71e-05,0.0,0 STARLINK-3243,1 51116U 22005N   23274.55854703  .00001710  00000-0  12545-3 0  9997,2 51116  53.2161 325.0456 0001596 102.1188 257.9983 15.08850650 94498,6917.848,95.437,540.817,538.609,0.0
51116.0,STARLINK-3243,PAYLOAD,2023-10-02 10:04:20,15.08830857,0.0001508,53.2159,321.1829,88.9914,271.1251,-0.00012588,-2.29e-05,0.0,0 STARLINK-3243,1 51116U 22005N   23275.41967859 -.00002290  00000-0 -12588-3 0  9993,2 51116  53.2159 321.1829 0001508  88.9914 271.1251 15.08830857 95738,6917.908,95.438,540.817,538.73,0.0
51116.0,STARLINK-3243,PAYLOAD,2023-10-02 19:36:39,15.0883164,0.000167,53.2154,319.3977,89.927,270.1914,0.00016878,2.399e-05,0.0,0 STARLINK-3243,1 51116U 22005N   23275.81712314  .00002399  00000-0  16878-3 0  9995,2 51116  53.2154 319.3977 0001670  89.9270 270.1914 15.08831640 94681,6917.906,95.438,540.926,538.616,0.0
51116.0,STARLINK-3243,PAYLOAD,2023-10-03 09:55:07,15.08855063,0.0001471,53.2152,316.7221,85.1835,274.9325,0.00091075,0.00014242,0.0,0 STARLINK-3243,1 51116U 22005N   23276.41328097  .00014242  00000-0  91075-3 0  9995,2 51116  53.2152 316.7221 0001471  85.1835 274.9325 15.08855063 95882,6917.834,95.437,540.717,538.682,0.0
51116.0,STARLINK-3243,PAYLOAD,2023-10-03 14:41:16,15.08866387,0.000153,53.2153,315.8295,85.3664,274.7503,0.0010801,0.00016956,0.0,0 STARLINK-3243,1 51116U 22005N   23276.61199714  .00016956  00000-0  10801-2 0  9990,2 51116  53.2153 315.8295 0001530  85.3664 274.7503 15.08866387 94800,6917.8,95.436,540.723,538.606,0.0
51116.0,STARLINK-3243,PAYLOAD,2023-10-04 03:24:21,15.08846615,0.0001605,53.2148,313.4505,96.7721,263.3453,0.0001962,2.836e-05,0.0,0 STARLINK-3243,1 51116U 22005N   23277.14191942  .00002836  00000-0  19620-3 0  9995,2 51116  53.2148 313.4505 0001605  96.7721 263.3453 15.08846615 95996,6917.86,95.437,540.835,538.615,0.0
51116.0,STARLINK-3243,PAYLOAD,2023-10-04 12:56:40,15.08864732,0.0001577,53.2151,311.666,99.3207,260.7963,0.0010476,0.00016435,0.0,0 STARLINK-3243,1 51116U 22005N   23277.53935497  .00016435  00000-0  10476-2 0  9998,2 51116  53.2151 311.6660 0001577  99.3207 260.7963 15.08864732 94949,6917.805,95.436,540.761,538.579,0.0
51116.0,STARLINK-3243,PAYLOAD,2023-10-04 19:18:13,15.08835299,0.0002325,53.2148,310.4768,85.7389,274.3869,0.0012292,0.00019327,0.0,0 STARLINK-3243,1 51116U 22005N   23277.80432089  .00019327  00000-0  12292-2 0  9998,2 51116  53.2148 310.4768 0002325  85.7389 274.3869 15.08835299 94989,6917.895,95.438,541.368,538.151,0.0
51116.0,STARLINK-3243,PAYLOAD,2023-10-05 01:39:46,15.08838513,0.0002413,53.2162,309.2865,83.521,276.6056,0.00049495,7.597e-05,0.0,0 STARLINK-3243,1 51116U 22005N   23278.06928263  .00007597  00000-0  49495-3 0  9993,2 51116  53.2162 309.2865 0002413  83.5210 276.6056 15.08838513 96130,6917.885,95.438,541.419,538.081,0.0
